SatCatId,ObjectName,LaunchYear,OrbitalPeriod,LaunchMass,StatusCode,Inclination,Status,UcsData,OrbitClassEstimated,LaunchSiteCountry,Owner,UseType,Purpose,LaunchVehicleClass,TLE1,TLE2,MeanMotion,Eccentricity,OrbitClass
51805,STARLINK-3605,2022,95.44,260.0,+,53.22,Active,1,LEO,USA,USA,Commercial,Communications,Falcon,1 51805U 22017AP  23027.34230178  .00001373  00000+0  10436-3 0  9993,2 51805  53.2168  34.8653 0001295  92.8611 267.2529 15.08842521 52544,15.08842521,0.0001295,LEO
51806,STARLINK-3581,2022,95.44,260.0,+,53.22,Active,1,LEO,USA,USA,Commercial,Communications,Falcon,1 51806U 22017AQ  23028.08474599  .00001371  00000+0  10423-3 0  9997,2 51806  53.2169  41.5408 0001148 104.2761 255.8359 15.08832600 52473,15.088326,0.0001148,LEO
51807,STARLINK-3606,2022,95.44,260.0,+,53.22,Active,1,LEO,USA,USA,Commercial,Communications,Falcon,1 51807U 22017AR  23028.15834257  .00001744  00000+0  12765-3 0  9992,2 51807  53.2141  41.2170 0001444 101.8052 258.3102 15.08839506 52535,15.08839506,0.0001444,LEO
51808,STARLINK-3609,2022,95.44,260.0,+,53.22,Active,1,LEO,USA,USA,Commercial,Communications,Falcon,1 51808U 22017AS  23028.07738005 -.00002202  00000+0 -12026-3 0  9990,2 51808  53.2172  41.5687 0001850 111.9268 248.1921 15.08838361 52475,15.08838361,0.000185,LEO
51809,STARLINK-3607,2022,95.44,260.0,+,53.22,Active,1,LEO,USA,USA,Commercial,Communications,Falcon,1 51809U 22017AT  23028.28712723  .00003129  00000+0  21450-3 0  9991,2 51809  53.2170  40.6310 0001166  96.6127 263.4998 15.08855331 52504,15.08855331,0.0001166,LEO
51810,STARLINK-3613,2022,95.44,260.0,+,53.22,Active,1,LEO,USA,USA,Commercial,Communications,Falcon,1 51810U 22017AU  23028.03509789 -.00001067  00000+0 -48925-4 0  9990,2 51810  53.2165  31.7661 0001623 105.4841 254.6330 15.08837890 52603,15.0883789,0.0001623,LEO
51811,STARLINK-3569,2022,95.44,260.0,+,53.22,Active,1,LEO,USA,USA,Commercial,Communications,Falcon,1 51811U 22017AV  23028.08106352 -.00001197  00000+0 -57131-4 0  9998,2 51811  53.2168  41.5558 0001311  97.4220 262.6921 15.08839902 52472,15.08839902,0.0001311,LEO
51812,STARLINK-3610,2022,95.44,260.0,+,53.22,Active,1,LEO,USA,USA,Commercial,Communications,Falcon,1 51812U 22017AW  23028.02310170  .00001618  00000+0  11972-3 0  9996,2 51812  53.2172  31.8237 0001654 105.3288 254.7887 15.08842394 52592,15.08842394,0.0001654,LEO
51813,STARLINK-3552,2022,95.44,260.0,+,53.22,Active,1,LEO,USA,USA,Commercial,Communications,Falcon,1 51813U 22017AX  23028.06821785 -.00000054  00000+0  14693-4 0  9998,2 51813  53.2161  31.6178 0001216  95.3219 264.7912 15.08842391 52608,15.08842391,0.0001216,LEO
51814,STARLINK-3599,2022,95.44,260.0,+,53.21,Active,1,LEO,USA,USA,Commercial,Communications,Falcon,1 51814U 22017AY  23028.14822426 -.00000583  00000+0 -18575-4 0  9992,2 51814  53.2141  31.2651 0001254 100.2020 259.9114 15.08839176 52626,15.08839176,0.0001254,LEO
51815,STARLINK-3604,2022,95.44,260.0,+,53.22,Active,1,LEO,USA,USA,Commercial,Communications,Falcon,1 51815U 22017AZ  23028.08566211 -.00001016  00000+0 -45792-4 0  9996,2 51815  53.2150  31.5438 0001176  83.6965 276.4161 15.08837904 52610,15.08837904,0.0001176,LEO
51816,STARLINK-3603,2022,95.44,260.0,+,53.22,Active,1,LEO,USA,USA,Commercial,Communications,Falcon,1 51816U 22017BA  23028.07830339  .00000290  00000+0  36290-4 0  9995,2 51816  53.2157  31.5703 0001075  81.7851 278.3263 15.08838659 52661,15.08838659,0.0001075,LEO
51817,STARLINK-3596,2022,91.33,260.0,+,53.19,Active,1,LEO,USA,USA,Commercial,Communications,Falcon,1 51817U 22017BB  23027.93806108  .00003061  00000+0  22693-4 0  9998,2 51817  53.1927 267.7636 0001921 264.5133  95.5669 15.76732757 54329,15.76732757,0.0001921,LEO
51822,L-SAR 01B,2022,96.75,3200.0,+,97.81,Active,1,LEO,PRC,China,Government,Earth Observation,Long March,1 51822U 22018A   23028.18101044 -.00000507  00000+0 -48865-4 0  9993,2 51822  97.8093  37.2846 0001371  87.1344 273.0090 14.88404673 49857,14.88404673,0.0001371,LEO
51824,OBJECT A,2022,95.26,39.0,+,97.49,Active,1,LEO,PRC,China,Commercial,Technology Development,Long March,1 51824U 22019A   23028.19066037  .00010030  00000+0  58999-3 0  9997,2 51824  97.4901 103.1806 0018809 196.5194 247.9366 15.11699951 50562,15.11699951,0.0018809,LEO
51825,OBJECT B,2022,95.27,55.0,+,97.49,Active,1,LEO,PRC,China,Government,Earth Observation,Long March,1 51825U 22019B   23028.17233830  .00007954  00000+0  47159-3 0  9990,2 51825  97.4886 103.1550 0017077 192.8594 251.3964 15.11513051 50558,15.11513051,0.0017077,LEO
51826,OBJECT C,2022,95.18,65.0,+,97.49,Active,1,LEO,PRC,China,Government,Earth Observation,Long March,1 51826U 22019C   23028.16846839  .00013382  00000+0  75901-3 0  9997,2 51826  97.4878 103.4238 0016131 193.7625 250.0442 15.12977466 50575,15.12977466,0.0016131,LEO
51827,OBJECT D,2022,95.25,62.0,+,97.49,Active,1,LEO,PRC,China,Government,Earth Observation,Long March,1 51827U 22019D   23028.18165253  .00008101  00000+0  47721-3 0  9996,2 51827  97.4903 103.3559 0015508 192.6433 251.4886 15.11761510 50568,15.1176151,0.0015508,LEO
51828,OBJECT E,2022,95.19,62.0,+,97.49,Active,1,LEO,PRC,China,Government,Earth Observation,Long March,1 51828U 22019E   23028.21226294  .00011411  00000+0  65160-3 0  9999,2 51828  97.4905 103.5880 0016006 194.3535 228.1403 15.12777470 50587,15.1277747,0.0016006,LEO
51829,OBJECT F,2022,95.07,240.0,+,97.49,Active,1,LEO,PRC,China,Commercial,Earth Observation,Long March,1 51829U 22019F   23028.16037187  .00015136  00000+0  81925-3 0  9990,2 51829  97.4942 104.1234 0015332 192.8871 167.1972 15.14633893 50604,15.14633893,0.0015332,LEO
51830,OBJECT G,2022,95.08,350.0,+,97.49,Active,1,LEO,PRC,China,Commercial,Earth Observation,Long March,1 51830U 22019G   23028.15844030  .00014279  00000+0  77356-3 0  9994,2 51830  97.4869 103.8279 0015445 193.0836 166.9998 15.14613735 50606,15.14613735,0.0015445,LEO
51831,OBJECT H,2022,95.18,88.0,+,97.49,Active,1,LEO,PRC,China,Commercial,Earth Observation,Long March,1 51831U 22019H   23028.21509684  .00010744  00000+0  60958-3 0  9998,2 51831  97.4910 103.7525 0019583 192.9540 228.7674 15.12971232 50597,15.12971232,0.0019583,LEO
51832,OBJECT J,2022,95.32,32.0,+,97.49,Active,1,LEO,PRC,China,Commercial,Earth Observation,Long March,1 51832U 22019J   23028.18599265  .00002772  00000+0  17113-3 0  9996,2 51832  97.4903 103.1609 0010211 198.6118 245.6701 15.10681218 50555,15.10681218,0.0010211,LEO
51833,OBJECT K,2022,95.12,43.0,+,97.49,Active,1,LEO,PRC,China,Commercial,Earth Observation,Long March,1 51833U 22019K   23028.19468862  .00013605  00000+0  75403-3 0  9999,2 51833  97.4877 103.8255 0014216 196.1632 248.3975 15.13828253 50607,15.13828253,0.0014216,LEO
51834,OBJECT L,2022,95.18,43.0,+,97.49,Active,1,LEO,PRC,China,Commercial,Earth Observation,Long March,1 51834U 22019L   23028.20818081  .00010595  00000+0  60230-3 0  9991,2 51834  97.4907 103.7769 0016043 203.0191 215.1000 15.12957591 50595,15.12957591,0.0016043,LEO
51835,OBJECT M,2022,95.18,43.0,+,97.49,Active,1,LEO,PRC,China,Commercial,Earth Observation,Long March,1 51835U 22019M   23028.20634395  .00010913  00000+0  61952-3 0  9992,2 51835  97.4909 103.7858 0017380 196.4971 248.4756 15.12979543 50591,15.12979543,0.001738,LEO
51836,OBJECT N,2022,95.05,43.0,+,97.49,Active,1,LEO,PRC,China,Commercial,Earth Observation,Long March,1 51836U 22019N   23028.20602456  .00016874  00000+0  90315-3 0  9993,2 51836  97.4911 104.1967 0013930 198.5900 238.2978 15.15024119 50623,15.15024119,0.001393,LEO
51837,OBJECT P,2022,95.03,43.0,+,97.49,Active,1,LEO,PRC,China,Commercial,Earth Observation,Long March,1 51837U 22019P   23028.17130410  .00017491  00000+0  92874-3 0  9994,2 51837  97.4853 104.0519 0013933 198.9869 245.3445 15.15299235 50623,15.15299235,0.0013933,LEO
51838,OBJECT Q,2022,95.16,43.0,+,97.49,Active,1,LEO,PRC,China,Commercial,Earth Observation,Long March,1 51838U 22019Q   23028.21509171  .00010564  00000+0  59674-3 0  9999,2 51838  97.4899 103.8872 0013934 198.9996 223.7384 15.13214016 50607,15.13214016,0.0013934,LEO
51839,OBJECT R,2022,95.18,43.0,+,97.49,Active,1,LEO,PRC,China,Commercial,Earth Observation,Long March,1 51839U 22019R   23028.19254571  .00010672  00000+0  60722-3 0  9994,2 51839  97.4894 103.7291 0011474 186.6935 257.7470 15.12976631 50599,15.12976631,0.0011474,LEO
51840,OBJECT S,2022,95.18,43.0,+,97.49,Active,1,LEO,PRC,China,Commercial,Earth Observation,Long March,1 51840U 22019S   23028.17511170  .00010258  00000+0  58379-3 0  9990,2 51840  97.4899 103.8016 0014028 190.7662 253.2167 15.12952046 50591,15.12952046,0.0014028,LEO
51841,OBJECT T,2022,95.18,43.0,+,97.49,Active,1,LEO,PRC,China,Commercial,Earth Observation,Long March,1 51841U 22019T   23028.16846872  .00010175  00000+0  57865-3 0  9997,2 51841  97.4892 103.7710 0014661 189.1001 254.8142 15.12973535 50593,15.12973535,0.0014661,LEO
51842,OBJECT U,2022,94.24,-1.0,+,97.54,Active,0,LEO,PRC,China,Unknown,Unknown,Unknown,1 51842U 22019U   23028.19913568  .00020233  00000+0  69923-3 0  9992,2 51842  97.5403 112.7911 0063637 118.4272 325.8489 15.27988085 51044,15.27988085,0.0063637,LEO
51843,OBJECT V,2022,95.22,325.0,+,97.49,Active,1,LEO,PRC,China,Commercial,Earth Observation,Long March,1 51843U 22019V   23028.21157986  .00009247  00000+0  53589-3 0  9993,2 51843  97.4930 103.8614 0014696 203.1966 217.4616 15.12322468 50591,15.12322468,0.0014696,LEO
51844,OBJECT W,2022,95.18,-1.0,+,97.49,Active,0,LEO,PRC,China,Unknown,Unknown,Unknown,1 51844U 22019W   23028.22533876  .00010334  00000+0  58615-3 0  9995,2 51844  97.4883 103.6639 0021365 195.6388 229.7345 15.12960059 50496,15.12960059,0.0021365,LEO
51845,OBJECT X,2022,95.13,20.0,+,97.49,Active,1,LEO,PRC,China,Commercial,Earth Observation,Long March,1 51845U 22019X   23028.18505095  .00013196  00000+0  73327-3 0  9999,2 51845  97.4903 103.9466 0014356 199.4248 245.3083 15.13739597 50529,15.13739597,0.0014356,LEO
